SL-16 R/B               
1 22803U 93059B   26069.11213389 -.00000144  00000+0 -47306-4 0  9996
2 22803  70.9927  10.2349 0018532 215.9464 144.0415 14.17231594679592
ARIANE 40 R/B           
1 22830U 93061H   26069.11755692  .00000236  00000+0  10245-3 0  9998
2 22830  98.4915 137.9968 0009581 283.6486  76.3631 14.32861206694161
COSMOS 2278             
1 23087U 94023A   26069.23422436  .00000097  00000+0  75171-4 0  9997
2 23087  71.0552 173.9582 0008068  12.1891 347.9425 14.14379120644887
SL-16 R/B               
1 23088U 94023B   26069.13905764 -.00000243  00000+0 -10093-3 0  9993
2 23088  70.9985  69.9432 0005717 285.2568  74.7922 14.15011712646156
SL-16 R/B               
1 23343U 94074B   26069.05772017  .00000591  00000+0  85870-4 0  9997
2 23343  97.7109  99.8605 0005817 208.9932 178.9569 14.79408494687300
SL-16 R/B               
1 23405U 94077B   26069.19117704  .00000000  00000+0  24298-4 0  9992
2 23405  70.9853 351.4341 0003067 211.4855 148.6084 14.15561273616303
ARIANE 40+ R/B          
1 23561U 95021B   26069.15813297  .00000353  00000+0  12658-3 0  9998
2 23561  98.4495 140.6344 0007663 135.1800 254.0412 14.39772837619319
SL-16 R/B               
1 23705U 95058B   26068.70352616  .00000314  00000+0  18469-3 0  9994
2 23705  71.0220 180.2259 0010793 125.7746 234.4382 14.15495248567850
SL-16 R/B               
1 24298U 96051B   26068.74107470  .00000113  00000+0  87952-4 0  9997
2 24298  70.7604 175.1301 0015054 147.9840 212.2198 14.12415709521655
ORBVIEW 2 (SEASTAR)     
1 24883U 97037A   26069.04521034  .00000387  00000+0  15062-3 0  9997
2 24883  98.8568 233.3664 0003098  71.4417 288.7104 14.35495267508528
SL-16 R/B               
1 25400U 98043G   26068.87192553  .00000112  00000+0  65699-4 0  9999
2 25400  98.8253  22.2366 0010209  19.8771 340.2805 14.26049928439018
SL-16 R/B               
1 25407U 98045B   26068.71444668  .00000177  00000+0  11334-3 0  9995
2 25407  71.0118 181.5219 0006733   8.0336 352.0894 14.16190002427103
ISS (ZARYA)             
1 25544U 98067A   26069.15865510  .00009130  00000+0  17626-3 0  9991
2 25544  51.6324  70.0375 0007972 176.2903 183.8146 15.48557200556406
CZ-4B R/B               
1 25732U 99025C   26069.08238256  .00000056  00000+0  47800-4 0  9994
2 25732  98.6626 113.3547 0036716 345.4857  43.2279 14.18265352388228
OKEAN-O                 
1 25860U 99039A   26069.12512873  .00000794  00000+0  11094-3 0  9990
2 25860  97.9441 129.0122 0001255  70.1592 289.9755 14.80335846434458
SL-16 R/B               
1 25861U 99039B   26069.17211037  .00000705  00000+0  96212-4 0  9992
2 25861  97.9966 128.2681 0013523 254.3521 105.6199 14.81732333436935
DELTA 2 R/B             
1 25876U 99041E   26069.00810879  .00001293  00000+0  24629-3 0  9997
2 25876  51.7624 300.0088 0502409 349.3726   9.6894 14.11838777363070
